{
"type": "FeatureCollection",
"name": "hotels_buffer_200m",
"crs": { "type": "name", "properties": { "name": "urn:ogc:def:crs:EPSG::5179" } },
"xy_coordinate_resolution": 1e-15,
"features": [
{ "type": "Feature", "properties": { "full_id": "n368953808", "osm_id": "368953808", "osm_type": "node", "tourism": "hotel", "wheelchair": null, "payment:debit_cards": null, "payment:credit_cards": null, "payment:cash": null, "elevator": null, "check_date": null, "alt_name": null, "addr:full": null, "name:ja": null, "name:ko-Latn": "Maradohotel", "name:ko": "마라도호텔", "name:en": "Marado Hotel", "name": "마라도호텔", "addr:subdistrict": null, "addr:street": null, "addr:province": null, "addr:postcode": null, "addr:housenumber": null, "addr:city": null }, "geometry": { "type": "MultiPolygon", "coordinates": [ [ [ [ 909508.173859539441764, 1501059.669147431151941 ], [ 909495.841300331871025, 1501049.946941676083952 ], [ 909482.783962816582061, 1501041.222307680407539 ], [ 909469.082349821226671, 1501033.549035713542253 ], [ 909454.820936346426606, 1501026.974434048868716 ], [ 909440.087648748303764, 1501021.539037292124704 ], [ 909424.973322644596919, 1501017.276356471702456 ], [ 909409.571142881410196, 1501014.212672432186082 ], [ 909393.976069018943235, 1501012.366873804479837 ], [ 909378.284249873366207, 1501011.750340551137924 ], [ 909362.592430727789178, 1501012.366873804479837 ], [ 909346.997356865322217, 1501014.212672432186082 ], [ 909331.595177102135494, 1501017.276356471702456 ], [ 909316.48085099842865, 1501021.539037292124704 ], [ 909301.747563400305808, 1501026.974434048868716 ], [ 909287.486149925505742, 1501033.549035713542253 ], [ 909273.784536930150352, 1501041.222307680407539 ], [ 909260.727199414861389, 1501049.946941676083952 ], [ 909248.394640207290649, 1501059.669147431151941 ], [ 909236.862893636105582, 1501070.328984313877299 ], [ 909226.203056753380224, 1501081.860730885062367 ], [ 909216.48085099842865, 1501094.193290092749521 ], [ 909207.756217002519406, 1501107.250627608038485 ], [ 909200.08294503565412, 1501120.95224060327746 ], [ 909193.508343371096998, 1501135.213654078077525 ], [ 909188.072946614352986, 1501149.946941676083952 ], [ 909183.810265793814324, 1501165.061267779907212 ], [ 909180.746581754297949, 1501180.463447543093935 ], [ 909178.90078312670812, 1501196.058521405560896 ], [ 909178.284249873366207, 1501211.750340551137924 ], [ 909178.90078312670812, 1501227.442159696714953 ], [ 909180.746581754297949, 1501243.037233559181914 ], [ 909183.810265793814324, 1501258.439413322368637 ], [ 909188.072946614352986, 1501273.553739426191896 ], [ 909193.508343371096998, 1501288.287027024198323 ], [ 909200.08294503565412, 1501302.548440498998389 ], [ 909207.756217002519406, 1501316.250053494237363 ], [ 909216.48085099842865, 1501329.307391009526327 ], [ 909226.203056753380224, 1501341.639950217213482 ], [ 909236.862893636105582, 1501353.171696788398549 ], [ 909248.394640207290649, 1501363.831533671123907 ], [ 909260.727199414861389, 1501373.553739426191896 ], [ 909273.784536930150352, 1501382.278373421868309 ], [ 909287.486149925505742, 1501389.951645388733596 ], [ 909299.864499471150339, 1501395.658142691478133 ], [ 909304.193914830684662, 1501400.341677841031924 ], [ 909315.725661401869729, 1501411.001514723757282 ], [ 909328.058220609440468, 1501420.723720478825271 ], [ 909341.115558124729432, 1501429.448354474501684 ], [ 909354.817171120084822, 1501437.121626441366971 ], [ 909369.078584594884887, 1501443.696228106040508 ], [ 909383.81187219300773, 1501449.13162486278452 ], [ 909398.926198296714574, 1501453.394305683206767 ], [ 909414.328378059901297, 1501456.457989722723141 ], [ 909429.923451922368258, 1501458.303788350429386 ], [ 909445.615271067945287, 1501458.920321603771299 ], [ 909461.307090213522315, 1501458.303788350429386 ], [ 909476.902164075989276, 1501456.457989722723141 ], [ 909492.304343839175999, 1501453.394305683206767 ], [ 909507.418669942882843, 1501449.13162486278452 ], [ 909522.151957541005686, 1501443.696228106040508 ], [ 909536.413371015805751, 1501437.121626441366971 ], [ 909550.114984011161141, 1501429.448354474501684 ], [ 909563.172321526450105, 1501420.723720478825271 ], [ 909575.504880734020844, 1501411.001514723757282 ], [ 909587.036627305205911, 1501400.341677841031924 ], [ 909597.696464187931269, 1501388.809931269846857 ], [ 909607.418669942882843, 1501376.477372062159702 ], [ 909616.143303938792087, 1501363.420034546870738 ], [ 909623.816575905657373, 1501349.718421551631764 ], [ 909630.391177570214495, 1501335.457008076831698 ], [ 909635.826574326958507, 1501320.723720478825271 ], [ 909640.08925514749717, 1501305.609394375002012 ], [ 909643.152939187013544, 1501290.207214611815289 ], [ 909644.998737814603373, 1501274.612140749348328 ], [ 909645.615271067945287, 1501258.920321603771299 ], [ 909644.998737814603373, 1501243.228502458194271 ], [ 909643.152939187013544, 1501227.63342859572731 ], [ 909640.08925514749717, 1501212.231248832540587 ], [ 909635.826574326958507, 1501197.116922728717327 ], [ 909630.391177570214495, 1501182.3836351307109 ], [ 909623.816575905657373, 1501168.122221655910835 ], [ 909616.143303938792087, 1501154.42060866067186 ], [ 909607.418669942882843, 1501141.363271145382896 ], [ 909597.696464187931269, 1501129.030711937695742 ], [ 909587.036627305205911, 1501117.498965366510674 ], [ 909575.504880734020844, 1501106.839128483785316 ], [ 909563.172321526450105, 1501097.116922728717327 ], [ 909550.114984011161141, 1501088.392288733040914 ], [ 909536.413371015805751, 1501080.719016766175628 ], [ 909524.035021470161155, 1501075.01251946343109 ], [ 909519.705606110626832, 1501070.328984313877299 ], [ 909508.173859539441764, 1501059.669147431151941 ] ] ], [ [ [ 909122.044357371050864, 1501568.180500629590824 ], [ 909118.98067333153449, 1501552.778320866404101 ], [ 909114.717992510995828, 1501537.663994762580842 ], [ 909109.282595754251815, 1501522.930707164574414 ], [ 909102.707994089694694, 1501508.669293689774349 ], [ 909095.034722122829407, 1501494.967680694535375 ], [ 909086.310088126920164, 1501481.910343179246411 ], [ 909076.58788237196859, 1501469.577783971559256 ], [ 909065.928045489243232, 1501458.046037400374189 ], [ 909054.396298918058164, 1501447.386200517648831 ], [ 909042.063739710487425, 1501437.663994762580842 ], [ 909029.006402195198461, 1501428.939360766904429 ], [ 909015.304789199843071, 1501421.266088800039142 ], [ 909001.043375725043006, 1501414.691487135365605 ], [ 908986.310088126920164, 1501409.256090378621593 ], [ 908971.195762023213319, 1501404.993409558199346 ], [ 908955.793582260026596, 1501401.929725518682972 ], [ 908940.198508397559635, 1501400.083926890976727 ], [ 908924.506689251982607, 1501399.467393637634814 ], [ 908908.814870106405579, 1501400.083926890976727 ], [ 908893.219796243938617, 1501401.929725518682972 ], [ 908877.817616480751894, 1501404.993409558199346 ], [ 908862.70329037704505, 1501409.256090378621593 ], [ 908847.970002778922208, 1501414.691487135365605 ], [ 908833.708589304122142, 1501421.266088800039142 ], [ 908820.006976308766752, 1501428.939360766904429 ], [ 908806.949638793477789, 1501437.663994762580842 ], [ 908794.617079585907049, 1501447.386200517648831 ], [ 908783.085333014721982, 1501458.046037400374189 ], [ 908772.425496131996624, 1501469.577783971559256 ], [ 908762.70329037704505, 1501481.910343179246411 ], [ 908753.978656381135806, 1501494.967680694535375 ], [ 908746.30538441427052, 1501508.669293689774349 ], [ 908739.730782749713399, 1501522.930707164574414 ], [ 908734.295385992969386, 1501537.663994762580842 ], [ 908730.032705172430724, 1501552.778320866404101 ], [ 908726.969021132914349, 1501568.180500629590824 ], [ 908725.12322250532452, 1501583.775574492057785 ], [ 908724.506689251982607, 1501599.467393637634814 ], [ 908725.12322250532452, 1501615.159212783211842 ], [ 908726.969021132914349, 1501630.754286645678803 ], [ 908730.032705172430724, 1501646.156466408865526 ], [ 908734.295385992969386, 1501661.270792512688786 ], [ 908739.730782749713399, 1501676.004080110695213 ], [ 908746.30538441427052, 1501690.265493585495278 ], [ 908753.978656381135806, 1501703.967106580734253 ], [ 908762.70329037704505, 1501717.024444096023217 ], [ 908772.425496131996624, 1501729.357003303710371 ], [ 908783.085333014721982, 1501740.888749874895439 ], [ 908794.617079585907049, 1501751.548586757620797 ], [ 908806.949638793477789, 1501761.270792512688786 ], [ 908820.006976308766752, 1501769.995426508365199 ], [ 908833.708589304122142, 1501777.668698475230485 ], [ 908847.970002778922208, 1501784.243300139904022 ], [ 908862.70329037704505, 1501789.678696896648034 ], [ 908877.817616480751894, 1501793.941377717070282 ], [ 908893.219796243938617, 1501797.005061756586656 ], [ 908908.814870106405579, 1501798.850860384292901 ], [ 908924.506689251982607, 1501799.467393637634814 ], [ 908940.198508397559635, 1501798.850860384292901 ], [ 908955.793582260026596, 1501797.005061756586656 ], [ 908971.195762023213319, 1501793.941377717070282 ], [ 908986.310088126920164, 1501789.678696896648034 ], [ 909001.043375725043006, 1501784.243300139904022 ], [ 909015.304789199843071, 1501777.668698475230485 ], [ 909029.006402195198461, 1501769.995426508365199 ], [ 909042.063739710487425, 1501761.270792512688786 ], [ 909054.396298918058164, 1501751.548586757620797 ], [ 909065.928045489243232, 1501740.888749874895439 ], [ 909076.58788237196859, 1501729.357003303710371 ], [ 909086.310088126920164, 1501717.024444096023217 ], [ 909095.034722122829407, 1501703.967106580734253 ], [ 909102.707994089694694, 1501690.265493585495278 ], [ 909109.282595754251815, 1501676.004080110695213 ], [ 909114.717992510995828, 1501661.270792512688786 ], [ 909118.98067333153449, 1501646.156466408865526 ], [ 909122.044357371050864, 1501630.754286645678803 ], [ 909123.890155998640694, 1501615.159212783211842 ], [ 909124.506689251982607, 1501599.467393637634814 ], [ 909123.890155998640694, 1501583.775574492057785 ], [ 909122.044357371050864, 1501568.180500629590824 ] ] ], [ [ [ 908973.828787063248456, 1502260.287397866137326 ], [ 908970.765103023732081, 1502244.885218102950603 ], [ 908966.502422203193419, 1502229.770891999127343 ], [ 908961.067025446449406, 1502215.037604401120916 ], [ 908954.492423781892285, 1502200.776190926320851 ], [ 908946.819151815026999, 1502187.074577931081876 ], [ 908938.094517819117755, 1502174.017240415792912 ], [ 908928.372312064166181, 1502161.684681208105758 ], [ 908917.712475181440823, 1502150.152934636920691 ], [ 908906.180728610255755, 1502139.493097754195333 ], [ 908893.848169402685016, 1502129.770891999127343 ], [ 908880.790831887396052, 1502121.04625800345093 ], [ 908867.089218892040662, 1502113.372986036585644 ], [ 908852.827805417240597, 1502106.798384371912107 ], [ 908838.094517819117755, 1502101.362987615168095 ], [ 908822.980191715410911, 1502097.100306794745848 ], [ 908807.578011952224188, 1502094.036622755229473 ], [ 908791.982938089757226, 1502092.190824127523229 ], [ 908776.291118944180198, 1502091.574290874181315 ], [ 908760.59929979860317, 1502092.190824127523229 ], [ 908745.004225936136208, 1502094.036622755229473 ], [ 908729.602046172949485, 1502097.100306794745848 ], [ 908714.487720069242641, 1502101.362987615168095 ], [ 908699.754432471119799, 1502106.798384371912107 ], [ 908685.493018996319734, 1502113.372986036585644 ], [ 908671.791406000964344, 1502121.04625800345093 ], [ 908658.73406848567538, 1502129.770891999127343 ], [ 908646.401509278104641, 1502139.493097754195333 ], [ 908634.869762706919573, 1502150.152934636920691 ], [ 908624.209925824194215, 1502161.684681208105758 ], [ 908614.487720069242641, 1502174.017240415792912 ], [ 908605.763086073333398, 1502187.074577931081876 ], [ 908598.089814106468111, 1502200.776190926320851 ], [ 908591.51521244191099, 1502215.037604401120916 ], [ 908586.079815685166977, 1502229.770891999127343 ], [ 908581.817134864628315, 1502244.885218102950603 ], [ 908578.753450825111941, 1502260.287397866137326 ], [ 908576.907652197522111, 1502275.882471728604287 ], [ 908576.291118944180198, 1502291.574290874181315 ], [ 908576.907652197522111, 1502307.266110019758344 ], [ 908578.753450825111941, 1502322.861183882225305 ], [ 908581.817134864628315, 1502338.263363645412028 ], [ 908586.079815685166977, 1502353.377689749235287 ], [ 908591.51521244191099, 1502368.110977347241715 ], [ 908598.089814106468111, 1502382.37239082204178 ], [ 908605.763086073333398, 1502396.074003817280754 ], [ 908614.487720069242641, 1502409.131341332569718 ], [ 908624.209925824194215, 1502421.463900540256873 ], [ 908634.869762706919573, 1502432.99564711144194 ], [ 908646.401509278104641, 1502443.655483994167298 ], [ 908658.73406848567538, 1502453.377689749235287 ], [ 908671.791406000964344, 1502462.1023237449117 ], [ 908685.493018996319734, 1502469.775595711776987 ], [ 908699.754432471119799, 1502476.350197376450524 ], [ 908714.487720069242641, 1502481.785594133194536 ], [ 908729.602046172949485, 1502486.048274953616783 ], [ 908745.004225936136208, 1502489.111958993133157 ], [ 908760.59929979860317, 1502490.957757620839402 ], [ 908776.291118944180198, 1502491.574290874181315 ], [ 908791.982938089757226, 1502490.957757620839402 ], [ 908807.578011952224188, 1502489.111958993133157 ], [ 908822.980191715410911, 1502486.048274953616783 ], [ 908838.094517819117755, 1502481.785594133194536 ], [ 908852.827805417240597, 1502476.350197376450524 ], [ 908867.089218892040662, 1502469.775595711776987 ], [ 908880.790831887396052, 1502462.1023237449117 ], [ 908893.848169402685016, 1502453.377689749235287 ], [ 908906.180728610255755, 1502443.655483994167298 ], [ 908917.712475181440823, 1502432.99564711144194 ], [ 908928.372312064166181, 1502421.463900540256873 ], [ 908938.094517819117755, 1502409.131341332569718 ], [ 908946.819151815026999, 1502396.074003817280754 ], [ 908954.492423781892285, 1502382.37239082204178 ], [ 908961.067025446449406, 1502368.110977347241715 ], [ 908966.502422203193419, 1502353.377689749235287 ], [ 908970.765103023732081, 1502338.263363645412028 ], [ 908973.828787063248456, 1502322.861183882225305 ], [ 908975.674585690838285, 1502307.266110019758344 ], [ 908976.291118944180198, 1502291.574290874181315 ], [ 908975.674585690838285, 1502275.882471728604287 ], [ 908973.828787063248456, 1502260.287397866137326 ] ] ] ] } }
]
}
