{
"type": "FeatureCollection",
"name": "samdo1_hotels(1)",
"crs": { "type": "name", "properties": { "name": "urn:ogc:def:crs:EPSG::5179" } },
"features": [
{ "type": "Feature", "properties": { "full_id": "n368953808", "osm_id": "368953808", "osm_type": "node", "tourism": "hotel", "wheelchair": null, "payment:debit_cards": null, "payment:credit_cards": null, "payment:cash": null, "elevator": null, "check_date": null, "alt_name": null, "addr:full": null, "name:ja": null, "name:ko-Latn": "Maradohotel", "name:ko": "마라도호텔", "name:en": "Marado Hotel", "name": "마라도호텔", "addr:subdistrict": null, "addr:street": null, "addr:province": null, "addr:postcode": null, "addr:housenumber": null, "addr:city": null }, "geometry": { "type": "Point", "coordinates": [ 909378.284249873366207, 1501211.750340551137924 ] } },
{ "type": "Feature", "properties": { "full_id": "n368953874", "osm_id": "368953874", "osm_type": "node", "tourism": "hotel", "wheelchair": null, "payment:debit_cards": null, "payment:credit_cards": null, "payment:cash": null, "elevator": null, "check_date": null, "alt_name": null, "addr:full": null, "name:ja": null, "name:ko-Latn": "Tawohotel", "name:ko": "타워호텔", "name:en": "Tower Hotel", "name": "타워호텔", "addr:subdistrict": null, "addr:street": null, "addr:province": null, "addr:postcode": null, "addr:housenumber": null, "addr:city": null }, "geometry": { "type": "Point", "coordinates": [ 908924.506689251982607, 1501599.467393637634814 ] } },
{ "type": "Feature", "properties": { "full_id": "n368953883", "osm_id": "368953883", "osm_type": "node", "tourism": "hotel", "wheelchair": null, "payment:debit_cards": null, "payment:credit_cards": null, "payment:cash": null, "elevator": null, "check_date": null, "alt_name": null, "addr:full": null, "name:ja": null, "name:ko-Latn": "Yeonggukhotel", "name:ko": "영국호텔", "name:en": "Yeongguk Hotel", "name": "영국호텔", "addr:subdistrict": null, "addr:street": null, "addr:province": null, "addr:postcode": null, "addr:housenumber": null, "addr:city": null }, "geometry": { "type": "Point", "coordinates": [ 908776.291118944180198, 1502291.574290874181315 ] } },
{ "type": "Feature", "properties": { "full_id": "n368953941", "osm_id": "368953941", "osm_type": "node", "tourism": "hotel", "wheelchair": null, "payment:debit_cards": null, "payment:credit_cards": null, "payment:cash": null, "elevator": null, "check_date": null, "alt_name": null, "addr:full": null, "name:ja": null, "name:ko-Latn": "Baengnokdamhotel", "name:ko": "백록담호텔", "name:en": "Baengnokdam Hotel", "name": "백록담호텔", "addr:subdistrict": null, "addr:street": null, "addr:province": null, "addr:postcode": null, "addr:housenumber": null, "addr:city": null }, "geometry": { "type": "Point", "coordinates": [ 909445.615271067945287, 1501258.920321603771299 ] } }
]
}
