{
"type": "FeatureCollection",
"name": "samdo1_boundary",
"crs": { "type": "name", "properties": { "name": "urn:ogc:def:crs:EPSG::5179" } },
"features": [
{ "type": "Feature", "properties": { "GID_3": "KOR.12.1.20_2", "GID_0": "KOR", "COUNTRY": "SouthKorea", "GID_1": "KOR.12_1", "NAME_1": "Jeju", "NL_NAME_1": "제주특별자치도|濟州特別自治道", "GID_2": "KOR.12.1_2", "NAME_2": "Jeju", "NL_NAME_2": "NA", "NAME_3": "Samdo1(il)", "VARNAME_3": "NA", "NL_NAME_3": "NA", "TYPE_3": "Dong", "ENGTYPE_3": "Neighborhood", "CC_3": "NA", "HASC_3": "NA" }, "geometry": { "type": "MultiPolygon", "coordinates": [ [ [ [ 909430.229685494676232, 1501806.378866440150887 ], [ 909452.160090607590973, 1501174.127498608082533 ], [ 908579.393750729854219, 1501226.717257237294689 ], [ 908465.477269488037564, 1501948.553901013918221 ], [ 908720.256546751013957, 1502367.502920830622315 ], [ 908972.396081013954245, 1502509.269403931917623 ], [ 908965.903857854194939, 1501821.841037318808958 ], [ 909430.229685494676232, 1501806.378866440150887 ] ] ] ] } }
]
}
