{
"type": "FeatureCollection",
"name": "samdo1_restaurants",
"crs": { "type": "name", "properties": { "name": "urn:ogc:def:crs:OGC:1.3:CRS84" } },
"xy_coordinate_resolution": 1e-15,
"features": [
{ "type": "Feature", "properties": { "full_id": "n368970957", "osm_id": "368970957", "osm_type": "node", "amenity": "restaurant", "contact:instagram": null, "diet:vegetarian": null, "diet:meat": null, "payment:debit_cards": null, "payment:credit_cards": null, "payment:cash": null, "addr:floor": null, "source:date": null, "level": null, "addr:housename": null, "addr:door": null, "description": null, "website": null, "addr:subdistrict": null, "addr:street": null, "addr:province": null, "addr:postcode": null, "addr:city": null, "takeaway": null, "outdoor_seating": null, "delivery": null, "check_date": null, "opening_hours": null, "addr:housenumber": null, "smoking": null, "phone": null, "cuisine": null, "wheelchair": null, "name:ko-Latn": "Baekseonhoetjip", "name:ko": "백선횟집", "name:en": "Baekseon Fish Restaurant", "name": "백선횟집" }, "geometry": { "type": "Point", "coordinates": [ 126.5249263, 33.4990629 ] } },
{ "type": "Feature", "properties": { "full_id": "n4654740279", "osm_id": "4654740279", "osm_type": "node", "amenity": "restaurant", "contact:instagram": null, "diet:vegetarian": null, "diet:meat": null, "payment:debit_cards": null, "payment:credit_cards": null, "payment:cash": null, "addr:floor": null, "source:date": null, "level": null, "addr:housename": null, "addr:door": null, "description": null, "website": null, "addr:subdistrict": null, "addr:street": null, "addr:province": null, "addr:postcode": null, "addr:city": null, "takeaway": "yes", "outdoor_seating": "no", "delivery": "yes", "check_date": null, "opening_hours": null, "addr:housenumber": null, "smoking": null, "phone": null, "cuisine": "japanese", "wheelchair": null, "name:ko-Latn": null, "name:ko": "코바코", "name:en": "kobako", "name": "코바코" }, "geometry": { "type": "Point", "coordinates": [ 126.521303, 33.5000593 ] } },
{ "type": "Feature", "properties": { "full_id": "n4654745048", "osm_id": "4654745048", "osm_type": "node", "amenity": "restaurant", "contact:instagram": null, "diet:vegetarian": null, "diet:meat": null, "payment:debit_cards": null, "payment:credit_cards": null, "payment:cash": null, "addr:floor": null, "source:date": null, "level": null, "addr:housename": null, "addr:door": null, "description": null, "website": null, "addr:subdistrict": "삼도일동", "addr:street": "서광로", "addr:province": "제주특별자치도", "addr:postcode": "63182", "addr:city": "제주시", "takeaway": "yes", "outdoor_seating": "no", "delivery": "yes", "check_date": null, "opening_hours": null, "addr:housenumber": "223", "smoking": null, "phone": null, "cuisine": "chicken", "wheelchair": null, "name:ko-Latn": null, "name:ko": "코코앤쿡", "name:en": null, "name": "코코앤쿡" }, "geometry": { "type": "Point", "coordinates": [ 126.5203904, 33.5001108 ] } },
{ "type": "Feature", "properties": { "full_id": "n4670300209", "osm_id": "4670300209", "osm_type": "node", "amenity": "restaurant", "contact:instagram": null, "diet:vegetarian": null, "diet:meat": null, "payment:debit_cards": null, "payment:credit_cards": null, "payment:cash": null, "addr:floor": null, "source:date": null, "level": null, "addr:housename": null, "addr:door": null, "description": null, "website": null, "addr:subdistrict": null, "addr:street": null, "addr:province": null, "addr:postcode": null, "addr:city": null, "takeaway": null, "outdoor_seating": null, "delivery": null, "check_date": null, "opening_hours": null, "addr:housenumber": null, "smoking": null, "phone": null, "cuisine": "korean", "wheelchair": null, "name:ko-Latn": null, "name:ko": "원영식당", "name:en": null, "name": "원영식당" }, "geometry": { "type": "Point", "coordinates": [ 126.5205657, 33.4991091 ] } },
{ "type": "Feature", "properties": { "full_id": "n6927474136", "osm_id": "6927474136", "osm_type": "node", "amenity": "restaurant", "contact:instagram": null, "diet:vegetarian": null, "diet:meat": null, "payment:debit_cards": null, "payment:credit_cards": null, "payment:cash": null, "addr:floor": null, "source:date": null, "level": null, "addr:housename": null, "addr:door": null, "description": null, "website": null, "addr:subdistrict": null, "addr:street": null, "addr:province": null, "addr:postcode": null, "addr:city": null, "takeaway": null, "outdoor_seating": null, "delivery": null, "check_date": null, "opening_hours": null, "addr:housenumber": null, "smoking": null, "phone": null, "cuisine": null, "wheelchair": null, "name:ko-Latn": null, "name:ko": null, "name:en": null, "name": null }, "geometry": { "type": "Point", "coordinates": [ 126.5177227, 33.5008943 ] } },
{ "type": "Feature", "properties": { "full_id": "n10700893944", "osm_id": "10700893944", "osm_type": "node", "amenity": "restaurant", "contact:instagram": null, "diet:vegetarian": null, "diet:meat": null, "payment:debit_cards": null, "payment:credit_cards": null, "payment:cash": null, "addr:floor": null, "source:date": null, "level": null, "addr:housename": null, "addr:door": null, "description": null, "website": null, "addr:subdistrict": null, "addr:street": null, "addr:province": null, "addr:postcode": null, "addr:city": null, "takeaway": null, "outdoor_seating": null, "delivery": null, "check_date": null, "opening_hours": null, "addr:housenumber": null, "smoking": null, "phone": null, "cuisine": null, "wheelchair": null, "name:ko-Latn": null, "name:ko": null, "name:en": null, "name": "옆구리터진 올레김밥" }, "geometry": { "type": "Point", "coordinates": [ 126.5165436, 33.4992679 ] } },
{ "type": "Feature", "properties": { "full_id": "n11001367918", "osm_id": "11001367918", "osm_type": "node", "amenity": "restaurant", "contact:instagram": null, "diet:vegetarian": null, "diet:meat": null, "payment:debit_cards": null, "payment:credit_cards": null, "payment:cash": null, "addr:floor": null, "source:date": null, "level": null, "addr:housename": null, "addr:door": null, "description": null, "website": null, "addr:subdistrict": "삼도일동", "addr:street": "전농로", "addr:province": "제주특별자치도", "addr:postcode": "63176", "addr:city": "제주시", "takeaway": null, "outdoor_seating": null, "delivery": null, "check_date": null, "opening_hours": null, "addr:housenumber": "48-1", "smoking": null, "phone": null, "cuisine": null, "wheelchair": null, "name:ko-Latn": null, "name:ko": null, "name:en": null, "name": "킷사 핫피엔도" }, "geometry": { "type": "Point", "coordinates": [ 126.5183233, 33.5043663 ] } },
{ "type": "Feature", "properties": { "full_id": "n11001373141", "osm_id": "11001373141", "osm_type": "node", "amenity": "restaurant", "contact:instagram": null, "diet:vegetarian": null, "diet:meat": null, "payment:debit_cards": null, "payment:credit_cards": null, "payment:cash": null, "addr:floor": null, "source:date": null, "level": null, "addr:housename": null, "addr:door": null, "description": null, "website": null, "addr:subdistrict": "삼도일동", "addr:street": "전농로", "addr:province": "제주특별자치도", "addr:postcode": "63176", "addr:city": "제주시", "takeaway": null, "outdoor_seating": null, "delivery": null, "check_date": null, "opening_hours": null, "addr:housenumber": "48-1", "smoking": null, "phone": null, "cuisine": "japanese", "wheelchair": null, "name:ko-Latn": null, "name:ko": null, "name:en": null, "name": "핫피엔도" }, "geometry": { "type": "Point", "coordinates": [ 126.5183643, 33.5043651 ] } }
]
}
